NORAD_CAT_ID,OBJECT_NAME,OBJECT_TYPE,EPOCH,MEAN_MOTION,ECCENTRICITY,INCLINATION,RA_OF_ASC_NODE,ARG_OF_PERICENTER,MEAN_ANOMALY,BSTAR,MEAN_MOTION_DOT,MEAN_MOTION_DDOT,TLE_LINE0,TLE_LINE1,TLE_LINE2,SEMIMAJOR_AXIS,PERIOD,APOGEE,PERIGEE,DECAYED
52991.0,STARLINK-4285,PAYLOAD,2022-08-14 22:00:00,15.28586877,0.0001475,53.2175,193.025,45.6017,309.0248,-0.0435339999999999,-0.01119739,0.0,0 STARLINK-4285,1 52991U 22076F   22226.91667824 -.01119739  00000-0 -43534-1 0  9993,2 52991  53.2175 193.0250 0001475  45.6017 309.0248 15.28586877  1308,6858.1730000000025,94.205,481.049,479.026,0.0
52991.0,STARLINK-4285,PAYLOAD,2022-08-15 06:00:00,15.27787132,0.0001598,53.2174,191.4866,41.4884,347.9691,-0.0448649999999999,-0.01125404,0.0,0 STARLINK-4285,1 52991U 22076F   22227.25001157 -.01125404  00000-0 -44865-1 0  9996,2 52991  53.2174 191.4866 0001598  41.4884 347.9691 15.27787132  6544,6860.566,94.254,483.527,481.335,0.0
52991.0,STARLINK-4285,PAYLOAD,2022-08-15 14:00:01,15.2698297,0.0001518,53.2174,189.947,44.6233,18.7037,-0.045899,-0.01123484,0.0,0 STARLINK-4285,1 52991U 22076F   22227.58334491 -.01123484  00000-0 -45899-1 0  9996,2 52991  53.2174 189.9470 0001518  44.6233  18.7037 15.26982970  1304,6862.974,94.304,485.881,483.798,0.0
52991.0,STARLINK-4285,PAYLOAD,2022-08-15 22:00:00,15.26178254,0.0001653,53.2175,188.4096,44.4499,51.7814,-0.046869,-0.01119804,0.0,0 STARLINK-4285,1 52991U 22076F   22227.91667824 -.01119804  00000-0 -46869-1 0  9991,2 52991  53.2175 188.4096 0001653  44.4499  51.7814 15.26178254  1307,6865.387,94.353,488.386,486.117,0.0
52991.0,STARLINK-4285,PAYLOAD,2022-08-16 06:00:02,15.25376725,0.0001909,53.2175,186.877,38.9595,89.2722,-0.048138,-0.01122318,0.0,0 STARLINK-4285,1 52991U 22076F   22228.25002315 -.01122318  00000-0 -48138-1 0  9992,2 52991  53.2175 186.8770 0001909  38.9595  89.2722 15.25376725  6690,6867.791,94.403,490.967,488.345,0.0
52991.0,STARLINK-4285,PAYLOAD,2022-08-16 14:00:01,15.24573893,0.0001688,53.2175,185.3429,47.1076,112.0352,-0.049317,-0.01137026,0.0,0 STARLINK-4285,1 52991U 22076F   22228.58334491 -.01137026  00000-0 -49317-1 0  9993,2 52991  53.2175 185.3429 0001688  47.1076 112.0352 15.24573893  1306,6870.2019999999975,94.453,493.227,490.908,0.0
52991.0,STARLINK-4285,PAYLOAD,2022-08-16 22:00:00,15.23769834,0.0001758,53.2176,183.8116,46.9228,142.2293,-0.050398,-0.01134461,0.0,0 STARLINK-4285,1 52991U 22076F   22228.91667824 -.01134461  00000-0 -50398-1 0  9990,2 52991  53.2176 183.8116 0001758  46.9228 142.2293 15.23769834  1307,6872.619000000002,94.502,495.692,493.276,0.0
52991.0,STARLINK-4285,PAYLOAD,2022-08-17 06:00:02,15.22966223,0.0001769,53.2175,182.2843,47.1335,171.1254,-0.051565,-0.01133291,0.0,0 STARLINK-4285,1 52991U 22076F   22229.25002315 -.01133291  00000-0 -51565-1 0  9993,2 52991  53.2175 182.2843 0001769  47.1335 171.1254 15.22966223  6853,6875.036,94.552,498.117,495.685,0.0
52991.0,STARLINK-4285,PAYLOAD,2022-08-17 14:00:01,15.22165908,0.0001816,53.2175,180.7558,39.7194,206.5555,-0.053047,-0.01138065,0.0,0 STARLINK-4285,1 52991U 22076F   22229.58334491 -.01138065  00000-0 -53047-1 0  9993,2 52991  53.2175 180.7558 0001816  39.7194 206.5555 15.22165908  1305,6877.446,94.602,500.56,498.062,0.0
52991.0,STARLINK-4285,PAYLOAD,2022-08-18 08:00:01,15.20356289,0.000168,53.2173,177.3281,37.3032,358.6226,-0.055636,-0.01132001,0.0,0 STARLINK-4285,1 52991U 22076F   22230.33334491 -.01132001  00000-0 -55636-1 0  9998,2 52991  53.2173 177.3281 0001680  37.3032 358.6226 15.20356289  7012,6882.901999999999,94.715,505.923,503.611,0.0
52991.0,STARLINK-4285,PAYLOAD,2022-08-18 14:00:01,15.19786368,0.0001639,53.218,176.1845,40.2633,284.4474,-0.0591159999999999,-0.01178885,0.0,0 STARLINK-4285,1 52991U 22076F   22230.58334491 -.01178885  00000-0 -59116-1 0  9992,2 52991  53.2180 176.1845 0001639  40.2633 284.4474 15.19786368  1307,6884.623000000001,94.75,507.616,505.359,0.0
52991.0,STARLINK-4285,PAYLOAD,2022-08-18 22:00:00,15.18952778,0.0001595999999999,53.2176,174.6659,42.1605,306.7838,-0.058112,-0.0113461,0.0,0 STARLINK-4285,1 52991U 22076F   22230.91667824 -.01134610  00000-0 -58112-1 0  9991,2 52991  53.2176 174.6659 0001596  42.1605 306.7838 15.18952778  1301,6887.141,94.802,510.105,507.907,0.0
52991.0,STARLINK-4285,PAYLOAD,2022-08-19 06:00:00,15.18148813,0.0001701,53.2175,173.1499,37.8295,334.3696,-0.059407,-0.01133247,0.0,0 STARLINK-4285,1 52991U 22076F   22231.25001157 -.01133247  00000-0 -59407-1 0  9993,2 52991  53.2175 173.1499 0001701  37.8295 334.3696 15.18148813  7155,6889.573,94.852,512.609,510.266,0.0
52991.0,STARLINK-4285,PAYLOAD,2022-08-19 14:00:01,15.17346728,0.0001726,53.2175,171.6323,35.7782,358.7122,-0.06092,-0.01135297,0.0,0 STARLINK-4285,1 52991U 22076F   22231.58334491 -.01135297  00000-0 -60920-1 0  9998,2 52991  53.2175 171.6323 0001726  35.7782 358.7122 15.17346728  1308,6892.0,94.903,515.055,512.6759999999998,0.0
52991.0,STARLINK-4285,PAYLOAD,2022-08-19 22:00:00,15.16543794,0.0001766,53.2175,170.1184,37.6944,18.1213,-0.062296,-0.01134484,0.0,0 STARLINK-4285,1 52991U 22076F   22231.91667824 -.01134484  00000-0 -62296-1 0  9999,2 52991  53.2175 170.1184 0001766  37.6944  18.1213 15.16543794  1301,6894.433000000001,94.953,517.515,515.08,0.0
52991.0,STARLINK-4285,PAYLOAD,2022-08-20 08:00:01,15.15538215,0.0001885999999999,53.2172,168.2299,41.1567,129.9591,-0.063882,-0.0113067,0.0,0 STARLINK-4285,1 52991U 22076F   22232.33334491 -.01130670  00000-0 -63882-1 0  9992,2 52991  53.2172 168.2299 0001886  41.1567 129.9591 15.15538215  7326,6897.482,95.016,520.648,518.0459999999998,0.0
52991.0,STARLINK-4285,PAYLOAD,2022-08-20 14:00:01,15.1493655,0.0001855,53.2175,167.0959,36.5271,59.0462,-0.065102,-0.01132503,0.0,0 STARLINK-4285,1 52991U 22076F   22232.58334491 -.01132503  00000-0 -65102-1 0  9993,2 52991  53.2175 167.0959 0001855  36.5271  59.0462 15.14936550  1300,6899.308000000001,95.053,522.453,519.893,0.0
52991.0,STARLINK-4285,PAYLOAD,2022-08-20 22:00:00,15.14134346,0.0002093,53.2175,165.5877,32.6479,81.3561,-0.066658,-0.01133418,0.0,0 STARLINK-4285,1 52991U 22076F   22232.91667824 -.01133418  00000-0 -66658-1 0  9992,2 52991  53.2175 165.5877 0002093  32.6479  81.3561 15.14134346  1305,6901.745,95.104,525.054,522.165,0.0
52991.0,STARLINK-4285,PAYLOAD,2022-08-21 06:00:00,15.13327616,0.0001902,53.2174,164.0826,40.0239,91.4469,-0.067774,-0.01126894,0.0,0 STARLINK-4285,1 52991U 22076F   22233.25001157 -.01126894  00000-0 -67774-1 0  9991,2 52991  53.2174 164.0826 0001902  40.0239  91.4469 15.13327616  7462,6904.196999999999,95.155,527.376,524.749,0.0
52991.0,STARLINK-4285,PAYLOAD,2022-08-21 14:00:01,15.12526941,0.000196,53.2175,162.5763,37.4438,110.5287,-0.069563,-0.01130563,0.0,0 STARLINK-4285,1 52991U 22076F   22233.58334491 -.01130563  00000-0 -69563-1 0  9993,2 52991  53.2175 162.5763 0001960  37.4438 110.5287 15.12526941  1300,6906.634,95.205,529.852,527.145,0.0
52991.0,STARLINK-4285,PAYLOAD,2022-08-21 22:00:00,15.11724839,0.000213,53.2176,161.0738,34.6075,128.9012,-0.071233,-0.01131887,0.0,0 STARLINK-4285,1 52991U 22076F   22233.91667824 -.01131887  00000-0 -71233-1 0  9996,2 52991  53.2176 161.0738 0002130  34.6075 128.9012 15.11724839  1307,6909.0769999999975,95.255,532.413,529.47,0.0
52991.0,STARLINK-4285,PAYLOAD,2022-08-22 12:00:00,15.10321937,0.000192,53.2176,158.4479,36.9685,61.4079,-0.074458,-0.01137272,0.0,0 STARLINK-4285,1 52991U 22076F   22234.50001157 -.01137272  00000-0 -74458-1 0  9999,2 52991  53.2176 158.4479 0001920  36.9685  61.4079 15.10321937  1302,6913.354,95.344,536.547,533.8919999999998,0.0
52991.0,STARLINK-4285,PAYLOAD,2022-08-22 22:00:00,15.09203454,0.0001706999999999,53.2177,156.576,43.3204,161.02100000000004,-0.0310899999999999,-0.00472936,0.0,0 STARLINK-4285,1 52991U 22076F   22234.91667824 -.00472936  00000-0 -31090-1 0  9996,2 52991  53.2177 156.5760 0001707  43.3204 161.0210 15.09203454  7713,6916.77,95.415,539.815,537.4540000000002,0.0
52991.0,STARLINK-4285,PAYLOAD,2022-08-23 06:00:00,15.08833758,0.0001706999999999,53.2173,155.0804,46.1827,169.9832,0.00039377,5.983e-05,0.0,0 STARLINK-4285,1 52991U 22076F   22235.25001157  .00005983  00000-0  39377-3 0  9995,2 52991  53.2173 155.0804 0001707  46.1827 169.9832 15.08833758  7761,6917.899,95.438,540.945,538.5840000000002,0.0
52991.0,STARLINK-4285,PAYLOAD,2022-08-23 14:00:01,15.08824089,0.0002136,53.2223,153.5759,52.9297,174.7138,0.0020477,0.00032438,0.0,0 STARLINK-4285,1 52991U 22076F   22235.58334491  .00032438  00000-0  20477-2 0  9996,2 52991  53.2223 153.5759 0002136  52.9297 174.7138 15.08824089  7818,6917.929,95.439,541.2719999999998,538.316,0.0
52991.0,STARLINK-4285,PAYLOAD,2022-08-23 22:00:01,15.08860649,0.0002207,53.2224,152.0806,53.9931,185.2988,-0.0014639,-0.00023525,0.0,0 STARLINK-4285,1 52991U 22076F   22235.91668981 -.00023525  00000-0 -14639-2 0  9999,2 52991  53.2224 152.0806 0002207  53.9931 185.2988 15.08860649  1301,6917.816999999999,95.436,541.2090000000002,538.156,0.0
52991.0,STARLINK-4285,PAYLOAD,2022-08-24 06:00:00,15.08830806,0.0002319999999999,53.2221,150.5855,50.125,200.7111,0.0022876,0.00036298,0.0,0 STARLINK-4285,1 52991U 22076F   22236.25001157  .00036298  00000-0  22876-2 0  9994,2 52991  53.2221 150.5855 0002320  50.1250 200.7111 15.08830806  7910,6917.908,95.438,541.378,538.169,0.0
52991.0,STARLINK-4285,PAYLOAD,2022-08-24 14:00:01,15.08840728,0.0002142,53.2221,149.0877,55.1273,207.3128,-5.9965e-05,-1.243e-05,0.0,0 STARLINK-4285,1 52991U 22076F   22236.58334491 -.00001243  00000-0 -59965-4 0  9995,2 52991  53.2221 149.0877 0002142  55.1273 207.3128 15.08840728  1301,6917.878000000002,95.438,541.225,538.261,0.0
52991.0,STARLINK-4285,PAYLOAD,2022-08-24 22:00:00,15.08840918,0.0002179,53.2222,147.5925,54.4166,219.6207,-0.0016255,-0.00026066,0.0,0 STARLINK-4285,1 52991U 22076F   22236.91667824 -.00026066  00000-0 -16255-2 0  9994,2 52991  53.2222 147.5925 0002179  54.4166 219.6207 15.08840918  8012,6917.878000000002,95.437,541.25,538.235,0.0
